ONEWEB-0281             
1 48999U 21060AJ  24090.07871971  .00000522  00000+0  13305-2 0  9995
2 48999  87.9140  29.7986 0002353  74.7410 285.3981 13.16599177134471
ONEWEB-0282             
1 49000U 21060AK  24089.88080556  .00000043  00000+0  79744-4 0  9996
2 49000  87.9135  29.8538 0001446  80.8535 279.2760 13.16596382133113
ONEWEB-0283             
1 49001U 21060AL  24090.09771799  .00001409  00000+0  36511-2 0  9998
2 49001  87.9136  29.8180 0001664  73.1448 286.9865 13.16589478134477
ONEWEB-0284             
1 49002U 21060AM  24089.78739573  .00000007  00000+0 -16151-4 0  9991
2 49002  87.9126  29.8678 0001593  83.1565 276.9747 13.16595736133090
ONEWEB-0285             
1 49075U 21075A   24089.87993760 -.00000240  00000+0 -70165-3 0  9991
2 49075  87.9000 151.7607 0001991 102.8202 257.3149 13.12442034129055
ONEWEB-0286             
1 49076U 21075B   24089.92745262  .00000477  00000+0  12915-2 0  9998
2 49076  87.8994 151.7566 0002410  99.9795 260.1606 13.12441248128416
ONEWEB-0287             
1 49077U 21075C   24089.91542761  .00000041  00000+0  72004-4 0  9991
2 49077  87.9247 166.8806 0002322 110.6052 249.5329 13.17649582127050
ONEWEB-0288             
1 49078U 21075D   24089.91157045  .00000175  00000+0  45219-3 0  9994
2 49078  87.8995 151.7632 0002148 105.5409 254.5957 13.12445092129033
